OBJECT_NAME,OBJECT_ID,EPOCH,MEAN_MOTION,ECCENTRICITY,INCLINATION,RA_OF_ASC_NODE,ARG_OF_PERICENTER,MEAN_ANOMALY,EPHEMERIS_TYPE,CLASSIFICATION_TYPE,NORAD_CAT_ID,ELEMENT_SET_NO,REV_AT_EPOCH,BSTAR,MEAN_MOTION_DOT,MEAN_MOTION_DDOT
KUZGTU 1 (RS47S),2023-091AV,2026-07-04T15:02:12.204960,15.30286863,.00111861,97.5049,250.2879,42.7073,317.5035,0,U,57217,999,16704,.82758173E-3,.24264E-3,0
SONATE-2,2024-043Q,2026-07-04T09:36:41.096160,15.60080524,.00071042,97.5552,336.8698,140.4883,219.6892,0,U,59112,999,13057,.71675548E-3,.58343E-3,0
MESAT1,2024-125G,2026-07-04T13:43:01.103520,15.65284638,.00109152,97.2260,43.4714,145.7958,214.4007,0,U,60209,999,11228,.12675296E-2,.127646E-2,0
OOV-CUBE (TUBSAT-30),2024-128F,2026-07-04T08:31:35.761728,15.02839523,.00424682,61.9937,165.7051,137.5285,222.9106,0,U,60240,999,10869,.21118858E-3,.2684E-4,0
COLIBRI-S (RS67S),2024-199M,2026-07-04T13:53:46.640256,15.48485076,.00075736,97.2964,59.5973,201.2038,158.8900,0,U,61746,999,14010,.84353738E-3,.44978E-3,0
HORS 3 (RS81S),2024-199U,2026-07-04T14:04:54.513984,15.56260809,.00056425,97.2944,61.7861,191.0469,169.0663,0,U,61753,999,14026,.1080188E-2,.76395E-3,0
HORS 4 (RS82S),2024-199V,2026-07-04T14:53:47.450976,15.61464451,.00057539,97.2886,63.1398,179.8727,180.2534,0,U,61754,999,14036,.12607739E-2,.10891E-2,0
SIT-2086,2024-199AF,2026-07-04T14:04:03.506880,15.54368169,.00069456,97.2900,62.2017,177.6574,182.4714,0,U,61764,999,13713,.11650246E-2,.76917E-3,0
HYPERVIEW 1G (RS66S),2024-199AP,2026-07-04T22:34:51.205152,15.81671252,.00075282,97.2814,66.6224,168.5700,191.5741,0,U,61772,999,13747,.15064888E-2,.311295E-2,0
ALTAIR (RS65S),2024-199AW,2026-07-04T21:11:59.999712,15.37374543,.00110571,97.3002,55.1189,237.0068,123.0115,0,U,61779,999,13983,.4092425E-3,.14951E-3,0
ASRTU-1 (AO-123),2024-199AY,2026-07-04T21:17:32.923968,15.35941380,.00120951,97.2973,54.3988,240.8548,119.1486,0,U,61781,999,13664,.38219116E-3,.1333E-3,0
SAMSAT-IONOSPHERE (RS75S),2024-199BB,2026-07-04T14:08:38.572512,15.59263110,.00078993,97.2910,61.9019,196.7378,163.3619,0,U,61784,999,14027,.12645322E-2,.100413E-2,0
RTU MIREA 1 (RS51S),2024-199BC,2026-07-04T15:17:24.368640,15.63170530,.00079452,97.2898,62.8772,190.2233,169.8866,0,U,61785,999,13719,.13479465E-2,.124714E-2,0
TEVEL2-4,2025-052D,2026-07-04T04:44:32.552736,15.35231929,.00044603,97.3880,81.6219,72.1659,288.0071,0,U,63213,999,7272,.77344373E-3,.26442E-3,0
TEVEL2-5,2025-052E,2026-07-03T23:01:24.056544,15.35036262,.00044711,97.3878,81.3261,74.0605,286.1131,0,U,63214,999,7268,.66991312E-3,.22739E-3,0
TEVEL2-6,2025-052F,2026-07-04T04:01:19.329312,15.35012398,.0004299,97.3882,81.5194,74.6482,285.5237,0,U,63215,999,7271,.73793881E-3,.25044E-3,0
TEVEL2-1,2025-052H,2026-07-02T10:36:17.123040,15.34387675,.000494,97.3860,79.3967,84.7539,275.4267,0,U,63217,999,7243,.64322E-3,.21382E-3,0
TEVEL2-3,2025-052J,2026-07-04T10:58:45.165216,15.34532305,.0004657,97.3857,81.4374,82.5997,277.5775,0,U,63218,999,7274,.8266232E-3,.27649E-3,0
TEVEL2-2,2025-052K,2026-07-04T11:07:41.842272,15.34484342,.00048476,97.3851,81.4223,81.4850,278.6942,0,U,63219,999,7274,.85302465E-3,.28496E-3,0
OTP-2,2025-052AB,2026-07-04T10:17:18.059136,15.24226530,.00083011,97.3846,77.6017,99.9102,260.3073,0,U,63235,999,7249,.44717158E-3,.1085E-3,0
TEVEL2-9,2025-052AD,2026-07-03T14:45:18.109152,15.32416047,.0008273,97.3920,79.9121,87.9946,272.2243,0,U,63237,999,7254,.61259096E-3,.19142E-3,0
TEVEL2-7,2025-052AE,2026-07-04T10:37:25.443840,15.32144794,.00083419,97.3918,80.6472,86.1482,274.0714,0,U,63238,999,7266,.82678858E-3,.25666E-3,0
TEVEL2-8,2025-052AF,2026-07-04T15:31:41.259648,15.32151068,.00083852,97.3915,80.8275,86.0349,274.1851,0,U,63239,999,7269,.10845933E-2,.33735E-3,0
INNOSAT 16 (RS92S7),2025-155C,2026-07-04T20:14:12.117984,15.25656676,.00122526,97.4577,152.9172,119.3777,240.8686,0,U,64878,999,8336,.39469699E-3,.9996E-4,0
GEOSCAN 6 (RS92S6),2025-155D,2026-07-04T21:38:37.297248,15.30505071,.00098964,97.4570,154.5266,110.7478,249.4824,0,U,64879,999,8347,.57898333E-3,.17044E-3,0
GEOSCAN 1 (RS92S1),2025-155E,2026-07-04T21:31:56.167104,15.31138205,.00098417,97.4566,154.6856,110.7981,249.4315,0,U,64880,999,8348,.59506227E-3,.17869E-3,0
239ALFEROV (RS61S),2025-155F,2026-07-04T21:44:52.441728,15.33452257,.00095123,97.4566,155.3170,109.8675,250.3593,0,U,64881,999,8352,.76726548E-3,.24814E-3,0
GEOSCAN 2 (RS92S2),2025-155Q,2026-07-04T21:18:24.926400,15.31396448,.00092433,97.4565,154.8356,100.4846,259.7437,0,U,64890,999,8349,.59186907E-3,.17913E-3,0
GEOSCAN 5 (RS92S5),2025-155R,2026-07-04T21:23:49.426656,15.33762874,.00084854,97.4557,155.4465,113.6776,246.5358,0,U,64891,999,8353,.72301053E-3,.23598E-3,0
GEOSCAN 4 (RS92S4),2025-155S,2026-07-04T20:58:26.223168,15.33926202,.00084767,97.4562,155.4823,113.6807,246.5326,0,U,64892,999,8353,.76408742E-3,.25077E-3,0
